TROLL                   
1 62658U 25009BB  26068.22522958  .00013174  00000+0  48220-3 0  9994
2 62658  97.3932 150.7169 0001816  59.1850 300.9568 15.28164315118170
STARLINK-34165          
1 63997U 25101D   26068.66670139  .00041332  00000+0  15048-2 0  9995
2 63997  43.0037 357.7874 0001779 272.4604 146.8496 15.27542503  5774
